[
    {
        "Altitude(m)": 612502.2142702194,
        "Argument of Periapsis(deg)": 0.0,
        "Eccentricity": 0.0,
        "Inclination(deg)": 60.0,
        "Latitude(deg)": -28.136036763376012,
        "Longitude(deg)": 177.1481920206744,
        "Mean Anomaly(deg)": -32.72730000000001,
        "RAAN(deg)": 295.00000000000006,
        "Satellite Name": "Test1 1318",
        "Satellite Number": 1318,
        "Semi-Major Axis(m)": 6980739.136638005,
        "Time(s)": 0
    },
    {
        "Altitude(m)": 612308.6621235589,
        "Argument of Periapsis(deg)": 0.00010418945913296404,
        "Eccentricity": 0.0,
        "Inclination(deg)": 60.0,
        "Latitude(deg)": -27.62309274106737,
        "Longitude(deg)": 177.50166760355046,
        "Mean Anomaly(deg)": -32.10719385453816,
        "RAAN(deg)": 294.99957995086027,
        "Satellite Name": "Test1 1318",
        "Satellite Number": 1318,
        "Semi-Major Axis(m)": 6980739.136638005,
        "Time(s)": 10
    }
]